{"type": "FeatureCollection", "features": [ {"type": "Feature", "properties": {"norad_id": 36011, "name": "IRIDIUM 33 DEB", "group": "iridium-33-debris", "lat": -79.3318984868732, "lon": -126.63586139355556, "alt_km": 754.9555258263181, "timestamp": "2025-12-17T04:57:44.746970+00:00", "meta": {"OBJECT_NAME": "IRIDIUM 33 DEB", "OBJECT_ID": "1997-051US", "EPOCH": "2025-12-11T21:42:29.079072", "MEAN_MOTION": 14.41326157, "ECCENTRICITY": 0.0017563, "INCLINATION": 86.3411, "RA_OF_ASC_NODE": 35.7829, "ARG_OF_PERICENTER": 218.6873, "MEAN_ANOMALY": 266.0791, "EPHEMERIS_TYPE": 0, "CLASSIFICATION_TYPE": "U", "NORAD_CAT_ID": 36011, "ELEMENT_SET_NO": 999, "REV_AT_EPOCH": 64528, "BSTAR": 0.00076231, "MEAN_MOTION_DOT": 2.489e-05, "MEAN_MOTION_DDOT": 0}, "tle": {"line1": "1 36011U 97051US  25345.90450323  .00002489  00000+0  76231-3 0  9992", "line2": "2 36011  86.3411  35.7829 0017563 218.6873 266.0791 14.41326157645287"}}, "geometry": {"type": "Point", "coordinates": [-126.63586139355556, -79.3318984868732]}}, {"type": "Feature", "properties": {"norad_id": 36012, "name": "IRIDIUM 33 DEB", "group": "iridium-33-debris", "lat": -5.376494523528509, "lon": 126.06796348639925, "alt_km": 761.6706679097933, "timestamp": "2025-12-17T04:57:44.746979+00:00", "meta": {"OBJECT_NAME": "IRIDIUM 33 DEB", "OBJECT_ID": "1997-051UT", "EPOCH": "2025-12-15T14:50:29.812704", "MEAN_MOTION": 14.19105959, "ECCENTRICITY": 0.02114565, "INCLINATION": 86.4397, "RA_OF_ASC_NODE": 306.3728, "ARG_OF_PERICENTER": 253.9261, "MEAN_ANOMALY": 103.8553, "EPHEMERIS_TYPE": 0, "CLASSIFICATION_TYPE": "U", "NORAD_CAT_ID": 36012, "ELEMENT_SET_NO": 999, "REV_AT_EPOCH": 65525, "BSTAR": 0.0034696464, "MEAN_MOTION_DOT": 9.086e-05, "MEAN_MOTION_DDOT": 0}, "tle": {"line1": "1 36012U 97051UT  25349.61840061  .00009086  00000+0  34696-2 0  9995", "line2": "2 36012  86.4397 306.3728 0211456 253.9261 103.8553 14.19105959655259"}}, "geometry": {"type": "Point", "coordinates": [126.06796348639925, -5.376494523528509]}}, {"type": "Feature", "properties": {"norad_id": 36028, "name": "IRIDIUM 33 DEB", "group": "iridium-33-debris", "lat": 56.258818017316884, "lon": -49.875985022447395, "alt_km": 560.944882423888, "timestamp": "2025-12-17T04:57:44.746989+00:00", "meta": {"OBJECT_NAME": "IRIDIUM 33 DEB", "OBJECT_ID": "1997-051VK", "EPOCH": "2025-12-13T04:21:30.824928", "MEAN_MOTION": 14.95340527, "ECCENTRICITY": 0.00215137, "INCLINATION": 86.3216, "RA_OF_ASC_NODE": 306.4905, "ARG_OF_PERICENTER": 52.2095, "MEAN_ANOMALY": 308.1078, "EPHEMERIS_TYPE": 0, "CLASSIFICATION_TYPE": "U", "NORAD_CAT_ID": 36028, "ELEMENT_SET_NO": 999, "REV_AT_EPOCH": 87131, "BSTAR": 0.0034254157, "MEAN_MOTION_DOT": 0.00038122, "MEAN_MOTION_DDOT": 0}, "tle": {"line1": "1 36028U 97051VK  25347.18160677  .00038122  00000+0  34254-2 0  9993", "line2": "2 36028  86.3216 306.4905 0021513  52.2095 308.1078 14.95340527871316"}}, "geometry": {"type": "Point", "coordinates": [-49.875985022447395, 56.258818017316884]}}, {"type": "Feature", "properties": {"norad_id": 36080, "name": "IRIDIUM 33 DEB", "group": "iridium-33-debris", "lat": -30.469169805390347, "lon": -171.78845625545284, "alt_km": 737.9712300503707, "timestamp": "2025-12-17T04:57:44.746998+00:00", "meta": {"OBJECT_NAME": "IRIDIUM 33 DEB", "OBJECT_ID": "1997-051VM", "EPOCH": "2025-12-12T07:47:12.921504", "MEAN_MOTION": 14.46603626, "ECCENTRICITY": 0.0018143, "INCLINATION": 86.3202, "RA_OF_ASC_NODE": 8.1679, "ARG_OF_PERICENTER": 158.128, "MEAN_ANOMALY": 202.0701, "EPHEMERIS_TYPE": 0, "CLASSIFICATION_TYPE": "U", "NORAD_CAT_ID": 36080, "ELEMENT_SET_NO": 999, "REV_AT_EPOCH": 47408, "BSTAR": 0.00097514146, "MEAN_MOTION_DOT": 3.542e-05, "MEAN_MOTION_DDOT": 0}, "tle": {"line1": "1 36080U 97051VM  25346.32445511  .00003542  00000+0  97514-3 0  9996", "line2": "2 36080  86.3202   8.1679 0018143 158.1280 202.0701 14.46603626474086"}}, "geometry": {"type": "Point", "coordinates": [-171.78845625545284, -30.469169805390347]}}, {"type": "Feature", "properties": {"norad_id": 36083, "name": "IRIDIUM 33 DEB", "group": "iridium-33-debris", "lat": -67.62454560059156, "lon": -138.83388679963508, "alt_km": 741.2460533484173, "timestamp": "2025-12-17T04:57:44.747007+00:00", "meta": {"OBJECT_NAME": "IRIDIUM 33 DEB", "OBJECT_ID": "1997-051VQ", "EPOCH": "2025-12-16T21:09:41.480640", "MEAN_MOTION": 14.43222397, "ECCENTRICITY": 0.00256692, "INCLINATION": 86.3437, "RA_OF_ASC_NODE": 32.3703, "ARG_OF_PERICENTER": 208.6135, "MEAN_ANOMALY": 151.3659, "EPHEMERIS_TYPE": 0, "CLASSIFICATION_TYPE": "U", "NORAD_CAT_ID": 36083, "ELEMENT_SET_NO": 999, "REV_AT_EPOCH": 85509, "BSTAR": 0.00040983827, "MEAN_MOTION_DOT": 1.403e-05, "MEAN_MOTION_DDOT": 0}, "tle": {"line1": "1 36083U 97051VQ  25350.88173010  .00001403  00000+0  40984-3 0  9990", "line2": "2 36083  86.3437  32.3703 0025669 208.6135 151.3659 14.43222397855098"}}, "geometry": {"type": "Point", "coordinates": [-138.83388679963508, -67.62454560059156]}}, {"type": "Feature", "properties": {"norad_id": 36390, "name": "IRIDIUM 33 DEB", "group": "iridium-33-debris", "lat": -15.14677674190999, "lon": 118.35197126614304, "alt_km": 640.101294721364, "timestamp": "2025-12-17T04:57:44.747016+00:00", "meta": {"OBJECT_NAME": "IRIDIUM 33 DEB", "OBJECT_ID": "1997-051VU", "EPOCH": "2025-12-10T04:13:18.491808", "MEAN_MOTION": 14.73548967, "ECCENTRICITY": 0.00303441, "INCLINATION": 86.2912, "RA_OF_ASC_NODE": 300.5678, "ARG_OF_PERICENTER": 170.4809, "MEAN_ANOMALY": 189.6991, "EPHEMERIS_TYPE": 0, "CLASSIFICATION_TYPE": "U", "NORAD_CAT_ID": 36390, "ELEMENT_SET_NO": 999, "REV_AT_EPOCH": 66224, "BSTAR": 0.0016206136, "MEAN_MOTION_DOT": 0.00010646, "MEAN_MOTION_DDOT": 0}, "tle": {"line1": "1 36390U 97051VU  25344.17590847  .00010646  00000+0  16206-2 0  9995", "line2": "2 36390  86.2912 300.5678 0030344 170.4809 189.6991 14.73548967662240"}}, "geometry": {"type": "Point", "coordinates": [118.35197126614304, -15.14677674190999]}}, {"type": "Feature", "properties": {"norad_id": 36483, "name": "IRIDIUM 33 DEB", "group": "iridium-33-debris", "lat": 85.28644547464816, "lon": -179.58373362640216, "alt_km": 724.2783270521204, "timestamp": "2025-12-17T04:57:44.747025+00:00", "meta": {"OBJECT_NAME": "IRIDIUM 33 DEB", "OBJECT_ID": "1997-051VZ", "EPOCH": "2025-12-16T21:53:24.442080", "MEAN_MOTION": 14.45825155, "ECCENTRICITY": 0.00113618, "INCLINATION": 86.3797, "RA_OF_ASC_NODE": 50.7036, "ARG_OF_PERICENTER": 114.4564, "MEAN_ANOMALY": 245.7824, "EPHEMERIS_TYPE": 0, "CLASSIFICATION_TYPE": "U", "NORAD_CAT_ID": 36483, "ELEMENT_SET_NO": 999, "REV_AT_EPOCH": 65206, "BSTAR": 0.00037285473, "MEAN_MOTION_DOT": 1.343e-05, "MEAN_MOTION_DDOT": 0}, "tle": {"line1": "1 36483U 97051VZ  25350.91208845  .00001343  00000+0  37285-3 0  9996", "line2": "2 36483  86.3797  50.7036 0011361 114.4564 245.7824 14.45825155652065"}}, "geometry": {"type": "Point", "coordinates": [-179.58373362640216, 85.28644547464816]}}, {"type": "Feature", "properties": {"norad_id": 36490, "name": "IRIDIUM 33 DEB", "group": "iridium-33-debris", "lat": 61.12049925158382, "lon": -178.16675105671584, "alt_km": 632.5810037540205, "timestamp": "2025-12-17T04:57:44.747034+00:00", "meta": {"OBJECT_NAME": "IRIDIUM 33 DEB", "OBJECT_ID": "1997-051WG", "EPOCH": "2025-12-16T08:54:21.966048", "MEAN_MOTION": 14.76271369, "ECCENTRICITY": 0.00054145, "INCLINATION": 86.3663, "RA_OF_ASC_NODE": 8.826, "ARG_OF_PERICENTER": 75.8345, "MEAN_ANOMALY": 284.3476, "EPHEMERIS_TYPE": 0, "CLASSIFICATION_TYPE": "U", "NORAD_CAT_ID": 36490, "ELEMENT_SET_NO": 999, "REV_AT_EPOCH": 86538, "BSTAR": 0.0010584607, "MEAN_MOTION_DOT": 7.358e-05, "MEAN_MOTION_DDOT": 0}, "tle": {"line1": "1 36490U 97051WG  25350.37108757  .00007358  00000+0  10585-2 0  9990", "line2": "2 36490  86.3663   8.8260 0005414  75.8345 284.3476 14.76271369865386"}}, "geometry": {"type": "Point", "coordinates": [-178.16675105671584, 61.12049925158382]}}, {"type": "Feature", "properties": {"norad_id": 36493, "name": "IRIDIUM 33 DEB", "group": "iridium-33-debris", "lat": -44.79211992732139, "lon": -166.67823609206377, "alt_km": 686.8637672649165, "timestamp": "2025-12-17T04:57:44.747043+00:00", "meta": {"OBJECT_NAME": "IRIDIUM 33 DEB", "OBJECT_ID": "1997-051WK", "EPOCH": "2025-12-16T08:16:16.620384", "MEAN_MOTION": 14.65279157, "ECCENTRICITY": 0.00097751, "INCLINATION": 86.3576, "RA_OF_ASC_NODE": 10.0789, "ARG_OF_PERICENTER": 352.1499, "MEAN_ANOMALY": 7.956, "EPHEMERIS_TYPE": 0, "CLASSIFICATION_TYPE": "U", "NORAD_CAT_ID": 36493, "ELEMENT_SET_NO": 999, "REV_AT_EPOCH": 74571, "BSTAR": 0.00084856526, "MEAN_MOTION_DOT": 4.598e-05, "MEAN_MOTION_DDOT": 0}, "tle": {"line1": "1 36493U 97051WK  25350.34463681  .00004598  00000+0  84857-3 0  9997", "line2": "2 36493  86.3576  10.0789 0009775 352.1499   7.9560 14.65279157745716"}}, "geometry": {"type": "Point", "coordinates": [-166.67823609206377, -44.79211992732139]}}, {"type": "Feature", "properties": {"norad_id": 37548, "name": "IRIDIUM 33 DEB", "group": "iridium-33-debris", "lat": -8.32625728303144, "lon": -138.04004766309174, "alt_km": 707.6250524144862, "timestamp": "2025-12-17T04:57:44.747052+00:00", "meta": {"OBJECT_NAME": "IRIDIUM 33 DEB", "OBJECT_ID": "1997-051XH", "EPOCH": "2025-12-15T20:39:30.861504", "MEAN_MOTION": 14.51326297, "ECCENTRICITY": 0.00258157, "INCLINATION": 86.3522, "RA_OF_ASC_NODE": 42.0105, "ARG_OF_PERICENTER": 178.4192, "MEAN_ANOMALY": 181.71, "EPHEMERIS_TYPE": 0, "CLASSIFICATION_TYPE": "U", "NORAD_CAT_ID": 37548, "ELEMENT_SET_NO": 999, "REV_AT_EPOCH": 65577, "BSTAR": 0.00067405053, "MEAN_MOTION_DOT": 2.715e-05, "MEAN_MOTION_DDOT": 0}, "tle": {"line1": "1 37548U 97051XH  25349.86077386  .00002715  00000+0  67405-3 0  9996", "line2": "2 37548  86.3522  42.0105 0025815 178.4192 181.7100 14.51326297655778"}}, "geometry": {"type": "Point", "coordinates": [-138.04004766309174, -8.32625728303144]}}]}